IRIDIUM 921 [-]         
1 24873U 97034E   24039.86160058  .00031259  00000+0  10286-2 0  9997
2 24873  86.3883 351.6995 0007100  54.4215 305.7695 15.31348732455342
IRIDIUM 26 [-]          
1 24903U 97043A   24039.81634263  .00000767  00000+0  25627-3 0  9996
2 24903  86.3988 318.0643 0001967  81.9090 278.2330 14.36197424385762
DUMMY MASS 1 [-]        
1 24925U 97048A   24039.91373987  .00000899  00000+0  99613-4 0  9992
2 24925  86.3375   3.6975 0009263  95.5836 264.6445 14.86036610431703
DUMMY MASS 2 [-]        
1 24926U 97048B   24039.92940612  .00000889  00000+0  98957-4 0  9998
2 24926  86.3372   5.2096 0009980 104.1627 256.0707 14.85796385431497
IRIDIUM 29 [-]          
1 24944U 97051A   24039.95543088  .00000645  00000+0  21743-3 0  9999
2 24944  86.4000 351.0691 0002454  84.5916 275.5560 14.35547338382349
IRIDIUM 33 [-]          
1 24946U 97051C   24039.93289514  .00000591  00000+0  20397-3 0  9994
2 24946  86.3914 350.3410 0005831 245.7751 114.2836 14.34252147381888
IRIDIUM 28 [-]          
1 24948U 97051E   24039.90541675  .00000841  00000+0  28031-3 0  9993
2 24948  86.4006 348.8910 0001764  84.9779 275.1620 14.36494957382860
